{"type": "FeatureCollection", "features": [ {"type": "Feature", "properties": {"norad_id": 36550, "name": "COSMOS 2251 DEB", "group": "cosmos-2251-debris", "lat": -72.59347433107604, "lon": 64.37102587374565, "alt_km": 762.2240980591823, "timestamp": "2025-12-20T14:38:02.366461+00:00", "meta": {"OBJECT_NAME": "COSMOS 2251 DEB", "OBJECT_ID": "1993-036BDL", "EPOCH": "2025-12-18T21:01:50.103840", "MEAN_MOTION": 14.27217133, "ECCENTRICITY": 0.00780997, "INCLINATION": 74.0439, "RA_OF_ASC_NODE": 181.6412, "ARG_OF_PERICENTER": 230.9486, "MEAN_ANOMALY": 128.4696, "EPHEMERIS_TYPE": 0, "CLASSIFICATION_TYPE": "U", "NORAD_CAT_ID": 36550, "ELEMENT_SET_NO": 999, "REV_AT_EPOCH": 84683, "BSTAR": 0.00048644345, "MEAN_MOTION_DOT": 1.202e-05, "MEAN_MOTION_DDOT": 0}, "tle": {"line1": "1 36550U 93036BDL 25352.87627435  .00001202  00000+0  48644-3 0  9992", "line2": "2 36550  74.0439 181.6412 0078099 230.9486 128.4696 14.27217133846832"}}, "geometry": {"type": "Point", "coordinates": [64.37102587374565, -72.59347433107604]}}, {"type": "Feature", "properties": {"norad_id": 36551, "name": "COSMOS 2251 DEB", "group": "cosmos-2251-debris", "lat": -60.21569605761403, "lon": -31.838391123392764, "alt_km": 530.4898994964478, "timestamp": "2025-12-20T14:38:02.366471+00:00", "meta": {"OBJECT_NAME": "COSMOS 2251 DEB", "OBJECT_ID": "1993-036BDM", "EPOCH": "2025-12-17T00:38:25.172736", "MEAN_MOTION": 15.02702962, "ECCENTRICITY": 0.00507763, "INCLINATION": 73.887, "RA_OF_ASC_NODE": 5.8751, "ARG_OF_PERICENTER": 314.3814, "MEAN_ANOMALY": 45.322, "EPHEMERIS_TYPE": 0, "CLASSIFICATION_TYPE": "U", "NORAD_CAT_ID": 36551, "ELEMENT_SET_NO": 999, "REV_AT_EPOCH": 66996, "BSTAR": 0.00093894132, "MEAN_MOTION_DOT": 0.00012873, "MEAN_MOTION_DDOT": 0}, "tle": {"line1": "1 36551U 93036BDM 25351.02668024  .00012873  00000+0  93894-3 0  9991", "line2": "2 36551  73.8870   5.8751 0050776 314.3814  45.3220 15.02702962669966"}}, "geometry": {"type": "Point", "coordinates": [-31.838391123392764, -60.21569605761403]}}, {"type": "Feature", "properties": {"norad_id": 36557, "name": "COSMOS 2251 DEB", "group": "cosmos-2251-debris", "lat": -46.071260730019645, "lon": 93.38215517591964, "alt_km": 630.325550194093, "timestamp": "2025-12-20T14:38:02.366481+00:00", "meta": {"OBJECT_NAME": "COSMOS 2251 DEB", "OBJECT_ID": "1993-036BDT", "EPOCH": "2025-12-16T15:02:26.530080", "MEAN_MOTION": 14.78433531, "ECCENTRICITY": 0.00216791, "INCLINATION": 73.9792, "RA_OF_ASC_NODE": 118.5873, "ARG_OF_PERICENTER": 270.9403, "MEAN_ANOMALY": 88.9288, "EPHEMERIS_TYPE": 0, "CLASSIFICATION_TYPE": "U", "NORAD_CAT_ID": 36557, "ELEMENT_SET_NO": 999, "REV_AT_EPOCH": 33954, "BSTAR": 0.0025552637, "MEAN_MOTION_DOT": 0.00018721, "MEAN_MOTION_DDOT": 0}, "tle": {"line1": "1 36557U 93036BDT 25350.62669595  .00018721  00000+0  25553-2 0  9990", "line2": "2 36557  73.9792 118.5873 0021679 270.9403  88.9288 14.78433531339544"}}, "geometry": {"type": "Point", "coordinates": [93.38215517591964, -46.071260730019645]}}, {"type": "Feature", "properties": {"norad_id": 36558, "name": "COSMOS 2251 DEB", "group": "cosmos-2251-debris", "lat": -40.18568100677823, "lon": 125.6578778058632, "alt_km": 714.2813876610444, "timestamp": "2025-12-20T14:38:02.366491+00:00", "meta": {"OBJECT_NAME": "COSMOS 2251 DEB", "OBJECT_ID": "1993-036BDU", "EPOCH": "2025-12-17T02:41:33.012960", "MEAN_MOTION": 14.55391753, "ECCENTRICITY": 0.00127941, "INCLINATION": 74.0416, "RA_OF_ASC_NODE": 146.2642, "ARG_OF_PERICENTER": 234.8109, "MEAN_ANOMALY": 125.1857, "EPHEMERIS_TYPE": 0, "CLASSIFICATION_TYPE": "U", "NORAD_CAT_ID": 36558, "ELEMENT_SET_NO": 999, "REV_AT_EPOCH": 85332, "BSTAR": 0.0007067154, "MEAN_MOTION_DOT": 3.045e-05, "MEAN_MOTION_DDOT": 0}, "tle": {"line1": "1 36558U 93036BDU 25351.11218765  .00003045  00000+0  70672-3 0  9991", "line2": "2 36558  74.0416 146.2642 0012794 234.8109 125.1857 14.55391753853329"}}, "geometry": {"type": "Point", "coordinates": [125.6578778058632, -40.18568100677823]}}, {"type": "Feature", "properties": {"norad_id": 36559, "name": "COSMOS 2251 DEB", "group": "cosmos-2251-debris", "lat": -62.04279548660702, "lon": -151.229975891924, "alt_km": 1061.3294502559047, "timestamp": "2025-12-20T14:38:02.366501+00:00", "meta": {"OBJECT_NAME": "COSMOS 2251 DEB", "OBJECT_ID": "1993-036BDV", "EPOCH": "2025-12-16T01:02:38.774976", "MEAN_MOTION": 13.95226172, "ECCENTRICITY": 0.0260446, "INCLINATION": 74.1323, "RA_OF_ASC_NODE": 4.1653, "ARG_OF_PERICENTER": 36.0043, "MEAN_ANOMALY": 325.8321, "EPHEMERIS_TYPE": 0, "CLASSIFICATION_TYPE": "U", "NORAD_CAT_ID": 36559, "ELEMENT_SET_NO": 999, "REV_AT_EPOCH": 81140, "BSTAR": 0.0020581095, "MEAN_MOTION_DOT": 3.672e-05, "MEAN_MOTION_DDOT": 0}, "tle": {"line1": "1 36559U 93036BDV 25350.04350434  .00003672  00000+0  20581-2 0  9992", "line2": "2 36559  74.1323   4.1653 0260446  36.0043 325.8321 13.95226172811403"}}, "geometry": {"type": "Point", "coordinates": [-151.229975891924, -62.04279548660702]}}, {"type": "Feature", "properties": {"norad_id": 36614, "name": "COSMOS 2251 DEB", "group": "cosmos-2251-debris", "lat": 61.515735127602994, "lon": -52.32735214835354, "alt_km": 690.4295092253742, "timestamp": "2025-12-20T14:38:02.366511+00:00", "meta": {"OBJECT_NAME": "COSMOS 2251 DEB", "OBJECT_ID": "1993-036BEC", "EPOCH": "2025-12-20T04:14:54.578976", "MEAN_MOTION": 14.60348261, "ECCENTRICITY": 0.00158372, "INCLINATION": 74.0212, "RA_OF_ASC_NODE": 160.3748, "ARG_OF_PERICENTER": 229.8459, "MEAN_ANOMALY": 130.1321, "EPHEMERIS_TYPE": 0, "CLASSIFICATION_TYPE": "U", "NORAD_CAT_ID": 36614, "ELEMENT_SET_NO": 999, "REV_AT_EPOCH": 65721, "BSTAR": 0.00089520523, "MEAN_MOTION_DOT": 4.309e-05, "MEAN_MOTION_DDOT": 0}, "tle": {"line1": "1 36614U 93036BEC 25354.17702059  .00004309  00000+0  89521-3 0  9994", "line2": "2 36614  74.0212 160.3748 0015837 229.8459 130.1321 14.60348261657217"}}, "geometry": {"type": "Point", "coordinates": [-52.32735214835354, 61.515735127602994]}}, {"type": "Feature", "properties": {"norad_id": 36622, "name": "COSMOS 2251 DEB", "group": "cosmos-2251-debris", "lat": -73.98834022354613, "lon": 37.57089492879156, "alt_km": 600.0399600344235, "timestamp": "2025-12-20T14:38:02.366521+00:00", "meta": {"OBJECT_NAME": "COSMOS 2251 DEB", "OBJECT_ID": "1993-036BEL", "EPOCH": "2025-12-16T03:41:49.595136", "MEAN_MOTION": 14.76229429, "ECCENTRICITY": 0.00688161, "INCLINATION": 74.0127, "RA_OF_ASC_NODE": 138.7807, "ARG_OF_PERICENTER": 273.5209, "MEAN_ANOMALY": 85.8096, "EPHEMERIS_TYPE": 0, "CLASSIFICATION_TYPE": "U", "NORAD_CAT_ID": 36622, "ELEMENT_SET_NO": 999, "REV_AT_EPOCH": 66800, "BSTAR": 0.00051790334, "MEAN_MOTION_DOT": 3.692e-05, "MEAN_MOTION_DDOT": 0}, "tle": {"line1": "1 36622U 93036BEL 25350.15404624  .00003692  00000+0  51790-3 0  9995", "line2": "2 36622  74.0127 138.7807 0068816 273.5209  85.8096 14.76229429668005"}}, "geometry": {"type": "Point", "coordinates": [37.57089492879156, -73.98834022354613]}}, {"type": "Feature", "properties": {"norad_id": 36632, "name": "COSMOS 2251 DEB", "group": "cosmos-2251-debris", "lat": -34.818199428846505, "lon": 109.23599876749633, "alt_km": 776.0389570455491, "timestamp": "2025-12-20T14:38:02.366531+00:00", "meta": {"OBJECT_NAME": "COSMOS 2251 DEB", "OBJECT_ID": "1993-036BEW", "EPOCH": "2025-12-13T13:36:30.735360", "MEAN_MOTION": 14.43181896, "ECCENTRICITY": 0.00321339, "INCLINATION": 74.0018, "RA_OF_ASC_NODE": 290.8293, "ARG_OF_PERICENTER": 38.3996, "MEAN_ANOMALY": 321.9438, "EPHEMERIS_TYPE": 0, "CLASSIFICATION_TYPE": "U", "NORAD_CAT_ID": 36632, "ELEMENT_SET_NO": 999, "REV_AT_EPOCH": 65227, "BSTAR": 0.0011350112, "MEAN_MOTION_DOT": 3.814e-05, "MEAN_MOTION_DDOT": 0}, "tle": {"line1": "1 36632U 93036BEW 25347.56702240  .00003814  00000+0  11350-2 0  9995", "line2": "2 36632  74.0018 290.8293 0032133  38.3996 321.9438 14.43181896652272"}}, "geometry": {"type": "Point", "coordinates": [109.23599876749633, -34.818199428846505]}}, {"type": "Feature", "properties": {"norad_id": 37084, "name": "COSMOS 2251 DEB", "group": "cosmos-2251-debris", "lat": 51.74920946141179, "lon": 166.72501495495396, "alt_km": 624.749579035939, "timestamp": "2025-12-20T14:38:02.366541+00:00", "meta": {"OBJECT_NAME": "COSMOS 2251 DEB", "OBJECT_ID": "1993-036BFE", "EPOCH": "2025-12-16T17:36:46.633248", "MEAN_MOTION": 15.01047546, "ECCENTRICITY": 0.00974837, "INCLINATION": 74.026, "RA_OF_ASC_NODE": 153.3119, "ARG_OF_PERICENTER": 232.9103, "MEAN_ANOMALY": 126.3146, "EPHEMERIS_TYPE": 0, "CLASSIFICATION_TYPE": "U", "NORAD_CAT_ID": 37084, "ELEMENT_SET_NO": 999, "REV_AT_EPOCH": 66327, "BSTAR": 0.00052836057, "MEAN_MOTION_DOT": 7.439e-05, "MEAN_MOTION_DDOT": 0}, "tle": {"line1": "1 37084U 93036BFE 25350.73387307  .00007439  00000+0  52836-3 0  9995", "line2": "2 37084  74.0260 153.3119 0097483 232.9103 126.3146 15.01047546663277"}}, "geometry": {"type": "Point", "coordinates": [166.72501495495396, 51.74920946141179]}}, {"type": "Feature", "properties": {"norad_id": 37085, "name": "COSMOS 2251 DEB", "group": "cosmos-2251-debris", "lat": -13.662113995881795, "lon": 22.904814624204317, "alt_km": 454.2839490922015, "timestamp": "2025-12-20T14:38:02.366551+00:00", "meta": {"OBJECT_NAME": "COSMOS 2251 DEB", "OBJECT_ID": "1993-036BFF", "EPOCH": "2025-12-13T09:00:31.802112", "MEAN_MOTION": 15.41681601, "ECCENTRICITY": 0.00213151, "INCLINATION": 73.9479, "RA_OF_ASC_NODE": 214.6598, "ARG_OF_PERICENTER": 52.8263, "MEAN_ANOMALY": 307.4887, "EPHEMERIS_TYPE": 0, "CLASSIFICATION_TYPE": "U", "NORAD_CAT_ID": 37085, "ELEMENT_SET_NO": 999, "REV_AT_EPOCH": 67147, "BSTAR": 0.0024657072, "MEAN_MOTION_DOT": 0.00106285, "MEAN_MOTION_DDOT": 0}, "tle": {"line1": "1 37085U 93036BFF 25347.37536808  .00106285  00000+0  24657-2 0  9992", "line2": "2 37085  73.9479 214.6598 0021315  52.8263 307.4887 15.41681601671472"}}, "geometry": {"type": "Point", "coordinates": [22.904814624204317, -13.662113995881795]}}]}